NORAD_CAT_ID,OBJECT_NAME,OBJECT_TYPE,EPOCH,MEAN_MOTION,ECCENTRICITY,INCLINATION,RA_OF_ASC_NODE,ARG_OF_PERICENTER,MEAN_ANOMALY,BSTAR,MEAN_MOTION_DOT,MEAN_MOTION_DDOT,TLE_LINE0,TLE_LINE1,TLE_LINE2,SEMIMAJOR_AXIS,PERIOD,APOGEE,PERIGEE,DECAYED
54769.0,STARLINK-5404,PAYLOAD,2024-03-04 12:35:47,15.0884976,0.0001801,53.2169,104.4381,54.5939,305.5222,5.9811e-06,-1.93e-06,0.0,0 STARLINK-5404,1 54769U 22175M   24064.52485946 -.00000193  00000-0  59811-5 0  9990,2 54769  53.2169 104.4381 0001801  54.5939 305.5222 15.08849760 66778,6917.851,95.437,540.961,538.47,0.0
54769.0,STARLINK-5404,PAYLOAD,2024-03-05 09:15:51,15.08816375,0.0001586,53.2165,100.5627,94.739,265.3783,-7.7481e-05,-1.52e-05,0.0,0 STARLINK-5404,1 54769U 22175M   24065.38601119 -.00001520  00000-0 -77481-4 0  9995,2 54769  53.2165 100.5627 0001586  94.7390 265.3783 15.08816375 69067,6917.953,95.439,540.915,538.72,0.0
54769.0,STARLINK-5404,PAYLOAD,2024-03-06 10:42:00,15.08838298,0.0001467,53.2161,95.8043,88.5365,271.5795,0.00013384,1.843e-05,0.0,0 STARLINK-5404,1 54769U 22175M   24066.44583988  .00001843  00000-0  13384-3 0  9993,2 54769  53.2161  95.8043 0001467  88.5365 271.5795 15.08838298 67060,6917.886,95.438,540.765,538.736,0.0
54769.0,STARLINK-5404,PAYLOAD,2024-03-07 08:57:24,15.08848048,0.000157,53.2165,91.6524,101.0042,259.1127,0.00044015,6.725e-05,0.0,0 STARLINK-5404,1 54769U 22175M   24067.37320413  .00006725  00000-0  44015-3 0  9997,2 54769  53.2165  91.6524 0001570 101.0042 259.1127 15.08848048 69360,6917.856,95.437,540.807,538.635,0.0
54769.0,STARLINK-5404,PAYLOAD,2024-03-08 00:51:15,15.08852,0.0001621,53.2165,88.6789,99.948,260.1695,0.00023029,3.38e-05,0.0,0 STARLINK-5404,1 54769U 22175M   24068.03559941  .00003380  00000-0  23029-3 0  9997,2 54769  53.2165  88.6789 0001621  99.9480 260.1695 15.08852000 67304,6917.844,95.437,540.83,538.587,0.0
54769.0,STARLINK-5404,PAYLOAD,2024-03-08 08:48:11,15.08844545,0.0001528,53.2166,87.1903,97.219,262.8976,6.1417e-05,6.9e-06,0.0,0 STARLINK-5404,1 54769U 22175M   24068.36680246  .00000690  00000-0  61417-4 0  9991,2 54769  53.2166  87.1903 0001528  97.2190 262.8976 15.08844545 67353,6917.866,95.437,540.789,538.674,0.0
54769.0,STARLINK-5404,PAYLOAD,2024-03-08 18:20:31,15.08829449,0.0001666,53.2167,85.4053,93.6603,266.4579,-0.00013079,-2.368e-05,0.0,0 STARLINK-5404,1 54769U 22175M   24068.76425209 -.00002368  00000-0 -13079-3 0  9997,2 54769  53.2167  85.4053 0001666  93.6603 266.4579 15.08829449 67415,6917.913,95.438,540.93,538.625,0.0
54769.0,STARLINK-5404,PAYLOAD,2024-03-09 08:38:59,15.08834857,0.000148,53.2155,82.7297,94.8417,265.2744,-1.1424e-05,-4.7e-06,0.0,0 STARLINK-5404,1 54769U 22175M   24069.36041331 -.00000470  00000-0 -11424-4 0  9999,2 54769  53.2155  82.7297 0001480  94.8417 265.2744 15.08834857 69661,6917.896,95.438,540.785,538.737,0.0
54769.0,STARLINK-5404,PAYLOAD,2024-03-09 18:11:18,15.08841015,0.0001499,53.2151,80.9449,95.4549,264.6614,0.000132,1.813e-05,0.0,0 STARLINK-5404,1 54769U 22175M   24069.75785165  .00001813  00000-0  13200-3 0  9995,2 54769  53.2151  80.9449 0001499  95.4549 264.6614 15.08841015 67569,6917.877,95.437,540.779,538.705,0.0
54769.0,STARLINK-5404,PAYLOAD,2024-03-10 06:54:23,15.08850444,0.0001485,53.2146,78.5654,96.7737,263.3424,0.00050412,7.746e-05,0.0,0 STARLINK-5404,1 54769U 22175M   24070.28777080  .00007746  00000-0  50412-3 0  9999,2 54769  53.2146  78.5654 0001485  96.7737 263.3424 15.08850444 69802,6917.848,95.437,540.741,538.686,0.0
54769.0,STARLINK-5404,PAYLOAD,2024-03-10 18:02:05,15.08854402,0.0001582,53.2148,76.4812,102.1958,257.9212,0.00051424,7.909e-05,0.0,0 STARLINK-5404,1 54769U 22175M   24070.75144779  .00007909  00000-0  51424-3 0  9999,2 54769  53.2148  76.4812 0001582 102.1958 257.9212 15.08854402 69871,6917.836,95.437,540.796,538.607,0.0
54769.0,STARLINK-5404,PAYLOAD,2024-03-11 05:09:47,15.08840108,0.0001512,53.2162,74.3985,111.2364,248.879,0.00031662,4.755e-05,0.0,0 STARLINK-5404,1 54769U 22175M   24071.21513071  .00004755  00000-0  31662-3 0  9994,2 54769  53.2162  74.3985 0001512 111.2364 248.8790 15.08840108 67786,6917.88,95.438,540.791,538.699,0.0
54769.0,STARLINK-5404,PAYLOAD,2024-03-11 06:45:10,15.0884008,0.0001276,53.2161,74.1038,96.6229,263.4909,0.00024886,3.675e-05,0.0,0 STARLINK-5404,1 54769U 22175M   24071.28137033  .00003675  00000-0  24886-3 0  9991,2 54769  53.2161  74.1038 0001276  96.6229 263.4909 15.08840080 69950,6917.88,95.438,540.628,538.862,0.0
54769.0,STARLINK-5404,PAYLOAD,2024-03-12 09:46:43,15.08843716,0.0001558,53.2165,69.0487,92.9199,267.1971,-4.3466e-05,-9.8e-06,0.0,0 STARLINK-5404,1 54769U 22175M   24072.40744536 -.00000980  00000-0 -43466-4 0  9992,2 54769  53.2165  69.0487 0001558  92.9199 267.1971 15.08843716 67961,6917.869,95.437,540.812,538.656,0.0
54769.0,STARLINK-5404,PAYLOAD,2024-03-12 16:08:15,15.08846633,0.0001562,53.2168,67.8594,92.3964,267.7207,-6.8359e-06,-3.97e-06,0.0,0 STARLINK-5404,1 54769U 22175M   24072.67240296 -.00000397  00000-0 -68359-5 0  9996,2 54769  53.2168  67.8594 0001562  92.3964 267.7207 15.08846633 70163,6917.86,95.437,540.806,538.645,0.0
54769.0,STARLINK-5404,PAYLOAD,2024-03-13 09:37:30,15.08840091,0.0001625,53.2183,64.591,95.3713,264.7464,7.3494e-05,8.82e-06,0.0,0 STARLINK-5404,1 54769U 22175M   24073.40104861  .00000882  00000-0  73494-4 0  9997,2 54769  53.2183  64.5910 0001625  95.3713 264.7464 15.08840091 70277,6917.88,95.438,540.869,538.621,0.0
54769.0,STARLINK-5404,PAYLOAD,2024-03-13 15:59:02,15.08845659,0.0001534,53.2181,63.4007,90.8753,269.2415,0.00012843,1.757e-05,0.0,0 STARLINK-5404,1 54769U 22175M   24073.66600452  .00001757  00000-0  12843-3 0  9994,2 54769  53.2181  63.4007 0001534  90.8753 269.2415 15.08845659 68158,6917.863,95.437,540.789,538.667,0.0
54769.0,STARLINK-5404,PAYLOAD,2024-03-14 04:42:08,15.0883797,0.000155,53.2182,61.0225,96.711,263.4058,6.526e-05,7.51e-06,0.0,0 STARLINK-5404,1 54769U 22175M   24074.19593050  .00000751  00000-0  65260-4 0  9993,2 54769  53.2182  61.0225 0001550  96.7110 263.4058 15.08837970 68230,6917.887,95.438,540.824,538.679,0.0
54769.0,STARLINK-5404,PAYLOAD,2024-03-14 06:17:31,15.08838288,0.0001626,53.2183,60.7259,102.9948,257.1226,9.165e-05,1.171e-05,0.0,0 STARLINK-5404,1 54769U 22175M   24074.26216938  .00001171  00000-0  91650-4 0  9997,2 54769  53.2183  60.7259 0001626 102.9948 257.1226 15.08838288 70409,6917.886,95.438,540.875,538.626,0.0
54769.0,STARLINK-5404,PAYLOAD,2024-03-14 09:28:17,15.08843287,0.0001496,53.2176,60.1291,95.6477,264.4686,0.00010497,1.383e-05,0.0,0 STARLINK-5404,1 54769U 22175M   24074.39464590  .00001383  00000-0  10497-3 0  9994,2 54769  53.2176  60.1291 0001496  95.6477 264.4686 15.08843287 68268,6917.87,95.437,540.77,538.7,0.0
54769.0,STARLINK-5404,PAYLOAD,2024-03-14 22:11:22,15.0883919,0.0001817,53.2174,57.7497,95.2479,264.872,6.0683e-05,6.78e-06,0.0,0 STARLINK-5404,1 54769U 22175M   24074.92457053  .00000678  00000-0  60683-4 0  9998,2 54769  53.2174  57.7497 0001817  95.2479 264.8720 15.08839190 70502,6917.883,95.438,541.005,538.491,0.0
54769.0,STARLINK-5404,PAYLOAD,2024-03-15 04:32:55,15.08834555,0.0001523,53.2176,56.5602,100.6682,259.4482,5.0708e-05,5.19e-06,0.0,0 STARLINK-5404,1 54769U 22175M   24075.18953421  .00000519  00000-0  50708-4 0  9998,2 54769  53.2176  56.5602 0001523 100.6682 259.4482 15.08834555 68388,6917.897,95.438,540.816,538.708,0.0
54769.0,STARLINK-5404,PAYLOAD,2024-03-15 22:02:10,15.08840908,0.0001302,53.2171,53.2881,95.4087,264.7053,-1.2865e-06,-3.08e-06,0.0,0 STARLINK-5404,1 54769U 22175M   24075.91817205 -.00000308  00000-0 -12865-5 0  9999,2 54769  53.2171  53.2881 0001302  95.4087 264.7053 15.08840908 70656,6917.878,95.437,540.643,538.842,0.0
54769.0,STARLINK-5404,PAYLOAD,2024-03-16 07:34:28,15.08843774,0.0001424,53.2175,51.5042,91.6969,268.4187,6.3028e-05,7.15e-06,0.0,0 STARLINK-5404,1 54769U 22175M   24076.31560945  .00000715  00000-0  63028-4 0  9996,2 54769  53.2175  51.5042 0001424  91.6969 268.4187 15.08843774 68551,6917.869,95.437,540.719,538.749,0.0
54769.0,STARLINK-5404,PAYLOAD,2024-03-17 07:25:15,15.08841359,0.0001408,53.2179,47.0434,95.1334,264.9819,0.00011314,1.513e-05,0.0,0 STARLINK-5404,1 54769U 22175M   24077.30920970  .00001513  00000-0  11314-3 0  9991,2 54769  53.2179  47.0434 0001408  95.1334 264.9819 15.08841359 70864,6917.876,95.437,540.715,538.767,0.0
54769.0,STARLINK-5404,PAYLOAD,2024-03-18 04:05:16,15.08842885,0.0001402,53.2182,43.177,93.0221,267.0932,3.6101e-05,2.87e-06,0.0,0 STARLINK-5404,1 54769U 22175M   24078.17033041  .00000287  00000-0  36101-4 0  9990,2 54769  53.2182  43.1770 0001402  93.0221 267.0932 15.08842885 68833,6917.872,95.437,540.706,538.767,0.0
54769.0,STARLINK-5404,PAYLOAD,2024-03-19 02:20:40,15.08841575,0.0001442,53.2181,39.0124,118.2398,241.874,5.138e-05,5.3e-06,0.0,0 STARLINK-5404,1 54769U 22175M   24079.09768768  .00000530  00000-0  51380-4 0  9990,2 54769  53.2181  39.0124 0001442 118.2398 241.8740 15.08841575 71137,6917.876,95.437,540.738,538.743,0.0
54769.0,STARLINK-5404,PAYLOAD,2024-03-19 21:25:17,15.08842556,0.0001445,53.2186,35.4452,120.6699,239.4436,6.8333e-05,8e-06,0.0,0 STARLINK-5404,1 54769U 22175M   24079.89256664  .00000800  00000-0  68333-4 0  9991,2 54769  53.2186  35.4452 0001445 120.6699 239.4436 15.08842556 69097,6917.873,95.437,540.737,538.738,0.0
54769.0,STARLINK-5404,PAYLOAD,2024-03-20 02:11:27,15.08841744,0.0001338,53.2183,34.5494,115.3658,244.7473,5.7852e-05,6.33e-06,0.0,0 STARLINK-5404,1 54769U 22175M   24080.09128700  .00000633  00000-0  57852-4 0  9992,2 54769  53.2183  34.5494 0001338 115.3658 244.7473 15.08841744 71289,6917.875,95.437,540.666,538.814,0.0
54769.0,STARLINK-5404,PAYLOAD,2024-03-21 03:37:38,15.08836025,0.000102,53.2178,29.7962,81.7876,278.3232,1.2124e-05,-9.5e-07,0.0,0 STARLINK-5404,1 54769U 22175M   24081.15113564 -.00000095  00000-0  12124-4 0  9998,2 54769  53.2178  29.7962 0001020  81.7876 278.3232 15.08836025 69284,6917.893,95.438,540.463,539.052,0.0
